{
  "type": "FeatureCollection",
  "features": [
    {
      "type": "Feature",
      "properties": {
        "norad_id": 59626,
        "name": "LEGION 2",
        "group": "resource",
        "lat": 82.31025613543902,
        "lon": -49.27966594884535,
        "alt_km": 511.65470244210246,
        "timestamp": "2025-12-03T17:47:50.370068+00:00",
        "meta_object_name": "LEGION 2",
        "meta_object_id": "2024-081B",
        "meta_epoch": "2025-12-03T11:03:36.372960",
        "meta_mean_motion": 15.16341266,
        "meta_eccentricity": 0.0006243,
        "meta_inclination": 97.5233,
        "meta_ra_of_asc_node": 52.266,
        "meta_arg_of_pericenter": 331.4683,
        "meta_mean_anomaly": 28.6207,
        "meta_ephemeris_type": 0,
        "meta_classification_type": "U",
        "meta_norad_cat_id": 59626,
        "meta_element_set_no": 999,
        "meta_rev_at_epoch": 8787,
        "meta_bstar": 0.00035184,
        "meta_mean_motion_dot": 6.76e-05,
        "meta_mean_motion_ddot": 0,
        "tle_line1": "1 59626U 24081B   25337.46083765  .00006760  00000+0  35184-3 0  9994",
        "tle_line2": "2 59626  97.5233  52.2660 0006243 331.4683  28.6207 15.16341266 87873"
      },
      "geometry": {
        "type": "Point",
        "coordinates": [
          -49.27966594884535,
          82.31025613543902
        ]
      }
    },
    {
      "type": "Feature",
      "properties": {
        "norad_id": 60182,
        "name": "ALOS-4 (DAICHI-4)",
        "group": "resource",
        "lat": -43.165924131707925,
        "lon": -114.78898907795303,
        "alt_km": 638.23650556554,
        "timestamp": "2025-12-03T17:47:50.370079+00:00",
        "meta_object_name": "ALOS-4 (DAICHI-4)",
        "meta_object_id": "2024-123A",
        "meta_epoch": "2025-11-30T09:15:12.370176",
        "meta_mean_motion": 14.79468497,
        "meta_eccentricity": 0.000127,
        "meta_inclination": 97.9232,
        "meta_ra_of_asc_node": 69.4089,
        "meta_arg_of_pericenter": 105.4124,
        "meta_mean_anomaly": 254.7228,
        "meta_ephemeris_type": 0,
        "meta_classification_type": "U",
        "meta_norad_cat_id": 60182,
        "meta_element_set_no": 999,
        "meta_rev_at_epoch": 7648,
        "meta_bstar": -8.429942e-06,
        "meta_mean_motion_dot": -1.14e-06,
        "meta_mean_motion_ddot": 0,
        "tle_line1": "1 60182U 24123A   25334.38555984 -.00000114  00000+0 -84299-5 0  9997",
        "tle_line2": "2 60182  97.9232  69.4089 0001270 105.4124 254.7228 14.79468497 76488"
      },
      "geometry": {
        "type": "Point",
        "coordinates": [
          -114.78898907795303,
          -43.165924131707925
        ]
      }
    },
    {
      "type": "Feature",
      "properties": {
        "norad_id": 60452,
        "name": "LEGION 3",
        "group": "resource",
        "lat": 44.312100925266435,
        "lon": 76.0185300665544,
        "alt_km": 508.5342133904014,
        "timestamp": "2025-12-03T17:47:50.370090+00:00",
        "meta_object_name": "LEGION 3",
        "meta_object_id": "2024-146A",
        "meta_epoch": "2025-12-03T11:06:47.105280",
        "meta_mean_motion": 15.15600979,
        "meta_eccentricity": 0.00138,
        "meta_inclination": 45.0022,
        "meta_ra_of_asc_node": 359.8579,
        "meta_arg_of_pericenter": 145.9864,
        "meta_mean_anomaly": 214.1901,
        "meta_ephemeris_type": 0,
        "meta_classification_type": "U",
        "meta_norad_cat_id": 60452,
        "meta_element_set_no": 999,
        "meta_rev_at_epoch": 7232,
        "meta_bstar": 0.00040912,
        "meta_mean_motion_dot": 7.661e-05,
        "meta_mean_motion_ddot": 0,
        "tle_line1": "1 60452U 24146A   25337.46304520  .00007661  00000+0  40912-3 0  9996",
        "tle_line2": "2 60452  45.0022 359.8579 0013800 145.9864 214.1901 15.15600979 72322"
      },
      "geometry": {
        "type": "Point",
        "coordinates": [
          76.0185300665544,
          44.312100925266435
        ]
      }
    },
    {
      "type": "Feature",
      "properties": {
        "norad_id": 60453,
        "name": "LEGION 4",
        "group": "resource",
        "lat": 43.38817100559689,
        "lon": 160.93668867864605,
        "alt_km": 519.085548267135,
        "timestamp": "2025-12-03T17:47:50.370104+00:00",
        "meta_object_name": "LEGION 4",
        "meta_object_id": "2024-146B",
        "meta_epoch": "2025-12-03T11:08:06.232128",
        "meta_mean_motion": 15.15661797,
        "meta_eccentricity": 0.0009915,
        "meta_inclination": 45.0381,
        "meta_ra_of_asc_node": 91.5747,
        "meta_arg_of_pericenter": 262.7987,
        "meta_mean_anomaly": 97.1765,
        "meta_ephemeris_type": 0,
        "meta_classification_type": "U",
        "meta_norad_cat_id": 60453,
        "meta_element_set_no": 999,
        "meta_rev_at_epoch": 7117,
        "meta_bstar": 0.00046001,
        "meta_mean_motion_dot": 8.655e-05,
        "meta_mean_motion_ddot": 0,
        "tle_line1": "1 60453U 24146B   25337.46396102  .00008655  00000+0  46001-3 0  9993",
        "tle_line2": "2 60453  45.0381  91.5747 0009915 262.7987  97.1765 15.15661797 71178"
      },
      "geometry": {
        "type": "Point",
        "coordinates": [
          160.93668867864605,
          43.38817100559689
        ]
      }
    },
    {
      "type": "Feature",
      "properties": {
        "norad_id": 60989,
        "name": "SENTINEL-2C",
        "group": "resource",
        "lat": 57.95409581271035,
        "lon": -115.72089678523433,
        "alt_km": 782.5925570719774,
        "timestamp": "2025-12-03T17:47:50.370117+00:00",
        "meta_object_name": "SENTINEL-2C",
        "meta_object_id": "2024-157A",
        "meta_epoch": "2025-12-03T10:31:15.128256",
        "meta_mean_motion": 14.30824108,
        "meta_eccentricity": 0.0001147,
        "meta_inclination": 98.5614,
        "meta_ra_of_asc_node": 50.0556,
        "meta_arg_of_pericenter": 101.9489,
        "meta_mean_anomaly": 258.1822,
        "meta_ephemeris_type": 0,
        "meta_classification_type": "U",
        "meta_norad_cat_id": 60989,
        "meta_element_set_no": 999,
        "meta_rev_at_epoch": 6499,
        "meta_bstar": 0.00011032,
        "meta_mean_motion_dot": 2.46e-06,
        "meta_mean_motion_ddot": 0,
        "tle_line1": "1 60989U 24157A   25337.43836954  .00000246  00000+0  11032-3 0  9994",
        "tle_line2": "2 60989  98.5614  50.0556 0001147 101.9489 258.1822 14.30824108 64990"
      },
      "geometry": {
        "type": "Point",
        "coordinates": [
          -115.72089678523433,
          57.95409581271035
        ]
      }
    },
    {
      "type": "Feature",
      "properties": {
        "norad_id": 61735,
        "name": "IONOSFERA-M 1",
        "group": "resource",
        "lat": -68.90146765797223,
        "lon": -128.8421236199633,
        "alt_km": 823.689455440769,
        "timestamp": "2025-12-03T17:47:50.370127+00:00",
        "meta_object_name": "IONOSFERA-M 1",
        "meta_object_id": "2024-199A",
        "meta_epoch": "2025-12-03T13:03:56.236032",
        "meta_mean_motion": 14.22710704,
        "meta_eccentricity": 0.0001366,
        "meta_inclination": 98.7409,
        "meta_ra_of_asc_node": 207.4627,
        "meta_arg_of_pericenter": 34.6116,
        "meta_mean_anomaly": 325.5151,
        "meta_ephemeris_type": 0,
        "meta_classification_type": "U",
        "meta_norad_cat_id": 61735,
        "meta_element_set_no": 999,
        "meta_rev_at_epoch": 9988,
        "meta_bstar": 7.5658e-05,
        "meta_mean_motion_dot": 1.25e-06,
        "meta_mean_motion_ddot": 0,
        "tle_line1": "1 61735U 24199A   25337.54440088  .00000125  00000+0  75658-4 0  9992",
        "tle_line2": "2 61735  98.7409 207.4627 0001366  34.6116 325.5151 14.22710704 99880"
      },
      "geometry": {
        "type": "Point",
        "coordinates": [
          -128.8421236199633,
          -68.90146765797223
        ]
      }
    },
    {
      "type": "Feature",
      "properties": {
        "norad_id": 61736,
        "name": "IONOSFERA-M 2",
        "group": "resource",
        "lat": 66.43830828895767,
        "lon": 48.22853699130852,
        "alt_km": 808.7018686373949,
        "timestamp": "2025-12-03T17:47:50.370137+00:00",
        "meta_object_name": "IONOSFERA-M 2",
        "meta_object_id": "2024-199B",
        "meta_epoch": "2025-12-03T12:12:34.394688",
        "meta_mean_motion": 14.22712763,
        "meta_eccentricity": 0.0001383,
        "meta_inclination": 98.7407,
        "meta_ra_of_asc_node": 207.3399,
        "meta_arg_of_pericenter": 121.6334,
        "meta_mean_anomaly": 238.4979,
        "meta_ephemeris_type": 0,
        "meta_classification_type": "U",
        "meta_norad_cat_id": 61736,
        "meta_element_set_no": 999,
        "meta_rev_at_epoch": 10300,
        "meta_bstar": 7.6335e-05,
        "meta_mean_motion_dot": 1.27e-06,
        "meta_mean_motion_ddot": 0,
        "tle_line1": "1 61736U 24199B   25337.50873142  .00000127  00000+0  76335-4 0  9995",
        "tle_line2": "2 61736  98.7407 207.3399 0001383 121.6334 238.4979 14.22712763103009"
      },
      "geometry": {
        "type": "Point",
        "coordinates": [
          48.22853699130852,
          66.43830828895767
        ]
      }
    }
  ]
}